{
  "type": "FeatureCollection",
  "name": "kanpur_thermal_zones",
  "features": [
    {
      "type": "Feature",
      "properties": {
        "zone_id": "ZONE_01",
        "name": "Central Kanpur Urban Core",
        "classification": "High-Density Built-Up (Impervious)",
        "albedo_characteristic": "Low (Asphalt/Concrete)",
        "mean_uhi_offset_c": 2.1,
        "area_sqkm": 24.5,
        "estimated_population": 850000,
        "cooling_mitigation_priority": "High (Cool Roofs & Vertical Greenery)"
      },
      "geometry": {
        "type": "Polygon",
        "coordinates": [
          [
            [
              80.315,
              26.45
            ],
            [
              80.36,
              26.45
            ],
            [
              80.365,
              26.485
            ],
            [
              80.32,
              26.49
            ],
            [
              80.315,
              26.45
            ]
          ]
        ]
      }
    },
    {
      "type": "Feature",
      "properties": {
        "zone_id": "ZONE_02",
        "name": "Jajmau Industrial Tannery Cluster",
        "classification": "Heavy Industrial & Dense Settlement",
        "albedo_characteristic": "Moderate-Low (Industrial Roofs)",
        "mean_uhi_offset_c": 1.8,
        "area_sqkm": 21.8,
        "estimated_population": 320000,
        "cooling_mitigation_priority": "High (Industrial Emission Scrubbing & Vegetative Buffers)"
      },
      "geometry": {
        "type": "Polygon",
        "coordinates": [
          [
            [
              80.38,
              26.415
            ],
            [
              80.435,
              26.42
            ],
            [
              80.43,
              26.45
            ],
            [
              80.375,
              26.445
            ],
            [
              80.38,
              26.415
            ]
          ]
        ]
      }
    },
    {
      "type": "Feature",
      "properties": {
        "zone_id": "ZONE_03",
        "name": "Panki Industrial & Thermal Buffer",
        "classification": "Power Generation & Heavy Engineering",
        "albedo_characteristic": "Bare Soil / Metallic Roofs",
        "mean_uhi_offset_c": 1.6,
        "area_sqkm": 19.4,
        "estimated_population": 140000,
        "cooling_mitigation_priority": "Moderate (Ash Pond Greening & Tree Belts)"
      },
      "geometry": {
        "type": "Polygon",
        "coordinates": [
          [
            [
              80.21,
              26.46
            ],
            [
              80.26,
              26.465
            ],
            [
              80.255,
              26.495
            ],
            [
              80.205,
              26.49
            ],
            [
              80.21,
              26.46
            ]
          ]
        ]
      }
    },
    {
      "type": "Feature",
      "properties": {
        "zone_id": "ZONE_04",
        "name": "IITK & Kalyanpur Institutional Belt",
        "classification": "Suburban Canopy / Educational Campus",
        "albedo_characteristic": "High Vegetative Canopy & Lawns",
        "mean_uhi_offset_c": -0.8,
        "area_sqkm": 28.2,
        "estimated_population": 65000,
        "cooling_mitigation_priority": "Preservation (Ecological Buffer Baseline)"
      },
      "geometry": {
        "type": "Polygon",
        "coordinates": [
          [
            [
              80.22,
              26.5
            ],
            [
              80.275,
              26.505
            ],
            [
              80.27,
              26.535
            ],
            [
              80.215,
              26.53
            ],
            [
              80.22,
              26.5
            ]
          ]
        ]
      }
    },
    {
      "type": "Feature",
      "properties": {
        "zone_id": "ZONE_05",
        "name": "Ganga Riparian Buffer & Floodplain",
        "classification": "Riverine Wetland & Active Silt Floodplain",
        "albedo_characteristic": "Water Body & Saturated Silt",
        "mean_uhi_offset_c": -2.4,
        "area_sqkm": 36.0,
        "estimated_population": 15000,
        "cooling_mitigation_priority": "Strict Ecological Protection (Nocturnal Thermal Sink)"
      },
      "geometry": {
        "type": "Polygon",
        "coordinates": [
          [
            [
              80.28,
              26.51
            ],
            [
              80.4,
              26.46
            ],
            [
              80.42,
              26.48
            ],
            [
              80.3,
              26.54
            ],
            [
              80.28,
              26.51
            ]
          ]
        ]
      }
    }
  ]
}