{
  "type": "FeatureCollection",
  "name": "kanpur_cpcb_stations",
  "features": [
    {
      "type": "Feature",
      "properties": {
        "station_id": "229252",
        "name": "NSI Kalyanpur",
        "type": "Continuous Ambient Air Quality Monitoring Station (CAAQMS)",
        "operator": "UPPCB / CPCB",
        "zone": "Suburban / Institutional",
        "elevation_m": 133,
        "inversion_vulnerability": "High",
        "mean_winter_pm25_ugm3": 178.4,
        "dominant_source": "Biomass & Upwind Vehicular"
      },
      "geometry": {
        "type": "Point",
        "coordinates": [
          80.2581,
          26.5052
        ]
      }
    },
    {
      "type": "Feature",
      "properties": {
        "station_id": "5662",
        "name": "Nehru Nagar",
        "type": "Continuous Ambient Air Quality Monitoring Station (CAAQMS)",
        "operator": "UPPCB / CPCB",
        "zone": "Dense Urban Commercial / Residential",
        "elevation_m": 126,
        "inversion_vulnerability": "Critical",
        "mean_winter_pm25_ugm3": 242.6,
        "dominant_source": "Vehicular, Domestic & High Masonry Trapping"
      },
      "geometry": {
        "type": "Point",
        "coordinates": [
          80.3319,
          26.4674
        ]
      }
    }
  ]
}